{
    "links": {
        "self": "http://www.neowsapp.com/rest/v1/neo/3781415?api_key=iIulBulltgU6a56xZRHN4H3l9WmuAYTsLGpBGhQ2"
    },
    "id": "3781415",
    "neo_reference_id": "3781415",
    "name": "(2017 RK2)",
    "designation": "2017 RK2",
    "nasa_jpl_url": "http://ssd.jpl.nasa.gov/sbdb.cgi?sstr=3781415",
    "absolute_magnitude_h": 27.9,
    "estimated_diameter": {
        "kilometers": {
            "estimated_diameter_min": 0.0069912523,
            "estimated_diameter_max": 0.0156329154
        },
        "meters": {
            "estimated_diameter_min": 6.9912523225,
            "estimated_diameter_max": 15.6329154409
        },
        "miles": {
            "estimated_diameter_min": 0.0043441614,
            "estimated_diameter_max": 0.0097138403
        },
        "feet": {
            "estimated_diameter_min": 22.9371802696,
            "estimated_diameter_max": 51.289094295
        }
    },
    "is_potentially_hazardous_asteroid": false,
    "close_approach_data": [
        {
            "close_approach_date": "2017-09-17",
            "close_approach_date_full": "2017-Sep-17 21:16",
            "epoch_date_close_approach": 1505682960000,
            "relative_velocity": {
                "kilometers_per_second": "7.7224563666",
                "kilometers_per_hour": "27800.8429198817",
                "miles_per_hour": "17274.3626465232"
            },
            "miss_distance": {
                "astronomical": "0.0062850599",
                "lunar": "2.4448883011",
                "kilometers": "940231.573862413",
                "miles": "584232.8087627794"
            },
            "orbiting_body": "Earth"
        },
        {
            "close_approach_date": "2017-09-18",
            "close_approach_date_full": "2017-Sep-18 04:49",
            "epoch_date_close_approach": 1505710140000,
            "relative_velocity": {
                "kilometers_per_second": "8.2749689451",
                "kilometers_per_hour": "29789.8882022833",
                "miles_per_hour": "18510.2780332465"
            },
            "miss_distance": {
                "astronomical": "0.0074903084",
                "lunar": "2.9137299676",
                "kilometers": "1120534.182283108",
                "miles": "696267.6545105704"
            },
            "orbiting_body": "Moon"
        },
        {
            "close_approach_date": "2034-12-05",
            "close_approach_date_full": "2034-Dec-05 05:45",
            "epoch_date_close_approach": 2048910300000,
            "relative_velocity": {
                "kilometers_per_second": "19.1603833758",
                "kilometers_per_hour": "68977.3801529279",
                "miles_per_hour": "42859.8615733568"
            },
            "miss_distance": {
                "astronomical": "0.3716860987",
                "lunar": "144.5858923943",
                "kilometers": "55603448.674129769",
                "miles": "34550380.8836540522"
            },
            "orbiting_body": "Earth"
        },
        {
            "close_approach_date": "2037-08-07",
            "close_approach_date_full": "2037-Aug-07 23:02",
            "epoch_date_close_approach": 2133298920000,
            "relative_velocity": {
                "kilometers_per_second": "19.7327093554",
                "kilometers_per_hour": "71037.7536795448",
                "miles_per_hour": "44140.0975571594"
            },
            "miss_distance": {
                "astronomical": "0.3951410091",
                "lunar": "153.7098525399",
                "kilometers": "59112253.311010617",
                "miles": "36730650.9845438346"
            },
            "orbiting_body": "Earth"
        }
    ],
    "orbital_data": {
        "orbit_id": "3",
        "orbit_determination_date": "2017-09-21 06:20:43",
        "first_observation_date": "2017-09-13",
        "last_observation_date": "2017-09-19",
        "data_arc_in_days": 6,
        "observations_used": 29,
        "orbit_uncertainty": "7",
        "minimum_orbit_intersection": ".00188048",
        "jupiter_tisserand_invariant": "3.659",
        "epoch_osculation": "2459000.5",
        "eccentricity": ".5092398799188818",
        "semi_major_axis": "2.009295722704042",
        "inclination": ".4247521542624493",
        "ascending_node_longitude": "193.6325800320196",
        "orbital_period": "1040.313457302763",
        "perihelion_distance": ".9860822101527131",
        "perihelion_argument": "183.60053074596",
        "aphelion_distance": "3.032509235255371",
        "perihelion_time": "2459072.316159756827",
        "mean_anomaly": "335.1480504928876",
        "mean_motion": ".346049546387084",
        "equinox": "J2000",
        "orbit_class": {
            "orbit_class_type": "APO",
            "orbit_class_description": "Near-Earth asteroid orbits which cross the Earth’s orbit similar to that of 1862 Apollo",
            "orbit_class_range": "a (semi-major axis) > 1.0 AU; q (perihelion) < 1.017 AU"
        }
    },
    "is_sentry_object": false
}